{
    "distritos": {
        "Aveiro": [
            { "name": "Águeda", "postal_code": "3750" },
            { "name": "Albergaria-a-Velha", "postal_code": "3850" },
            { "name": "Anadia", "postal_code": "3780" },
            { "name": "Arouca", "postal_code": "4540" },
            { "name": "Aveiro", "postal_code": "3800" },
            { "name": "Castelo de Paiva", "postal_code": "4550" },
            { "name": "Espinho", "postal_code": "4500" },
            { "name": "Estarreja", "postal_code": "3860" },
            { "name": "Ílhavo", "postal_code": "3830" },
            { "name": "Mealhada", "postal_code": "3050" },
            { "name": "Murtosa", "postal_code": "3870" },
            { "name": "Oliveira de Azeméis", "postal_code": "3720" },
            { "name": "Oliveira do Bairro", "postal_code": "3770" },
            { "name": "Ovar", "postal_code": "3880" },
            { "name": "Santa Maria da Feira", "postal_code": "4520" },
            { "name": "São João da Madeira", "postal_code": "3700" },
            { "name": "Sever do Vouga", "postal_code": "3740" },
            { "name": "Vagos", "postal_code": "3840" },
            { "name": "Vale de Cambra", "postal_code": "3730" }
        ],
        "Beja": [
            { "name": "Aljustrel", "postal_code": "7600" },
            { "name": "Almodôvar", "postal_code": "7700" },
            { "name": "Alvito", "postal_code": "7920" },
            { "name": "Barrancos", "postal_code": "7230" },
            { "name": "Beja", "postal_code": "7800" },
            { "name": "Castro Verde", "postal_code": "7780" },
            { "name": "Cuba", "postal_code": "7940" },
            { "name": "Ferreira do Alentejo", "postal_code": "7900" },
            { "name": "Mértola", "postal_code": "7750" },
            { "name": "Moura", "postal_code": "7860" },
            { "name": "Odemira", "postal_code": "7630" },
            { "name": "Ourique", "postal_code": "7670" },
            { "name": "Serpa", "postal_code": "7830" },
            { "name": "Vidigueira", "postal_code": "7960" }
        ],
        "Braga": [
            { "name": "Amares", "postal_code": "4720" },
            { "name": "Barcelos", "postal_code": "4750" },
            { "name": "Braga", "postal_code": "4700" },
            { "name": "Cabeceiras de Basto", "postal_code": "4860" },
            { "name": "Celorico de Basto", "postal_code": "4890" },
            { "name": "Esposende", "postal_code": "4740" },
            { "name": "Fafe", "postal_code": "4820" },
            { "name": "Guimarães", "postal_code": "4810" },
            { "name": "Póvoa de Lanhoso", "postal_code": "4830" },
            { "name": "Terras de Bouro", "postal_code": "4840" },
            { "name": "Vieira do Minho", "postal_code": "4850" },
            { "name": "Vila Nova de Famalicão", "postal_code": "4760" },
            { "name": "Vila Verde", "postal_code": "4730" },
            { "name": "Vizela", "postal_code": "4815" }
        ],
        "Bragança": [
            { "name": "Alfândega da Fé", "postal_code": "5350" },
            { "name": "Bragança", "postal_code": "5300" },
            { "name": "Carrazeda de Ansiães", "postal_code": "5140" },
            { "name": "Freixo de Espada à Cinta", "postal_code": "5180" },
            { "name": "Macedo de Cavaleiros", "postal_code": "5340" },
            { "name": "Miranda do Douro", "postal_code": "5210" },
            { "name": "Mirandela", "postal_code": "5370" },
            { "name": "Mogadouro", "postal_code": "5200" },
            { "name": "Torre de Moncorvo", "postal_code": "5160" },
            { "name": "Vila Flor", "postal_code": "5360" },
            { "name": "Vimioso", "postal_code": "5230" },
            { "name": "Vinhais", "postal_code": "5320" }
        ],
        "Castelo Branco": [
            { "name": "Belmonte", "postal_code": "6250" },
            { "name": "Castelo Branco", "postal_code": "6000" },
            { "name": "Covilhã", "postal_code": "6200" },
            { "name": "Fundão", "postal_code": "6230" },
            { "name": "Idanha-a-Nova", "postal_code": "6060" },
            { "name": "Oleiros", "postal_code": "6160" },
            { "name": "Penamacor", "postal_code": "6090" },
            { "name": "Proença-a-Nova", "postal_code": "6150" },
            { "name": "Sertã", "postal_code": "6100" },
            { "name": "Vila de Rei", "postal_code": "6110" },
            { "name": "Vila Velha de Ródão", "postal_code": "6030" }
        ],
        "Coimbra": [
            { "name": "Arganil", "postal_code": "3300" },
            { "name": "Cantanhede", "postal_code": "3060" },
            { "name": "Coimbra", "postal_code": "3000" },
            { "name": "Condeixa-a-Nova", "postal_code": "3150" },
            { "name": "Figueira da Foz", "postal_code": "3080" },
            { "name": "Góis", "postal_code": "3330" },
            { "name": "Lousã", "postal_code": "3200" },
            { "name": "Mira", "postal_code": "3070" },
            { "name": "Miranda do Corvo", "postal_code": "3220" },
            { "name": "Montemor-o-Velho", "postal_code": "3140" },
            { "name": "Oliveira do Hospital", "postal_code": "3400" },
            { "name": "Pampilhosa da Serra", "postal_code": "3320" },
            { "name": "Penacova", "postal_code": "3360" },
            { "name": "Penela", "postal_code": "3230" },
            { "name": "Soure", "postal_code": "3130" },
            { "name": "Tábua", "postal_code": "3420" },
            { "name": "Vila Nova de Poiares", "postal_code": "3350" }
        ],
        "Évora": [
            { "name": "Alandroal", "postal_code": "7250" },
            { "name": "Arraiolos", "postal_code": "7040" },
            { "name": "Borba", "postal_code": "7150" },
            { "name": "Estremoz", "postal_code": "7100" },
            { "name": "Évora", "postal_code": "7000" },
            { "name": "Montemor-o-Novo", "postal_code": "7050" },
            { "name": "Mora", "postal_code": "7490" },
            { "name": "Mourão", "postal_code": "7240" },
            { "name": "Portel", "postal_code": "7220" },
            { "name": "Redondo", "postal_code": "7170" },
            { "name": "Reguengos de Monsaraz", "postal_code": "7200" },
            { "name": "Vendas Novas", "postal_code": "7080" },
            { "name": "Viana do Alentejo", "postal_code": "7090" },
            { "name": "Vila Viçosa", "postal_code": "7160" }
        ],
        "Faro": [
            { "name": "Albufeira", "postal_code": "8200" },
            { "name": "Alcoutim", "postal_code": "8970" },
            { "name": "Aljezur", "postal_code": "8670" },
            { "name": "Castro Marim", "postal_code": "8950" },
            { "name": "Faro", "postal_code": "8000" },
            { "name": "Lagoa", "postal_code": "8400" },
            { "name": "Lagos", "postal_code": "8600" },
            { "name": "Loulé", "postal_code": "8100" },
            { "name": "Monchique", "postal_code": "8550" },
            { "name": "Olhão", "postal_code": "8700" },
            { "name": "Portimão", "postal_code": "8500" },
            { "name": "São Brás de Alportel", "postal_code": "8150" },
            { "name": "Silves", "postal_code": "8300" },
            { "name": "Tavira", "postal_code": "8800" },
            { "name": "Vila do Bispo", "postal_code": "8650" },
            { "name": "Vila Real de Santo António", "postal_code": "8900" }
        ],
        "Guarda": [
            { "name": "Aguiar da Beira", "postal_code": "3570" },
            { "name": "Almeida", "postal_code": "6350" },
            { "name": "Celorico da Beira", "postal_code": "6360" },
            { "name": "Figueira de Castelo Rodrigo", "postal_code": "6440" },
            { "name": "Fornos de Algodres", "postal_code": "6370" },
            { "name": "Gouveia", "postal_code": "6290" },
            { "name": "Guarda", "postal_code": "6300" },
            { "name": "Manteigas", "postal_code": "6260" },
            { "name": "Mêda", "postal_code": "6430" },
            { "name": "Pinhel", "postal_code": "6400" },
            { "name": "Sabugal", "postal_code": "6320" },
            { "name": "Seia", "postal_code": "6270" },
            { "name": "Trancoso", "postal_code": "6420" },
            { "name": "Vila Nova de Foz Côa", "postal_code": "5150" }
        ],
        "Leiria": [
            { "name": "Alcobaça", "postal_code": "2460" },
            { "name": "Alvaiázere", "postal_code": "3250" },
            { "name": "Ansião", "postal_code": "3240" },
            { "name": "Batalha", "postal_code": "2440" },
            { "name": "Bombarral", "postal_code": "2540" },
            { "name": "Caldas da Rainha", "postal_code": "2500" },
            { "name": "Castanheira de Pera", "postal_code": "3280" },
            { "name": "Figueiró dos Vinhos", "postal_code": "3260" },
            { "name": "Leiria", "postal_code": "2400" },
            { "name": "Marinha Grande", "postal_code": "2430" },
            { "name": "Nazaré", "postal_code": "2450" },
            { "name": "Óbidos", "postal_code": "2510" },
            { "name": "Pedrógão Grande", "postal_code": "3270" },
            { "name": "Peniche", "postal_code": "2520" },
            { "name": "Pombal", "postal_code": "3100" },
            { "name": "Porto de Mós", "postal_code": "2480" }
        ],
        "Lisboa": [
            { "name": "Alenquer", "postal_code": "2580" },
            { "name": "Amadora", "postal_code": "2700" },
            { "name": "Arruda dos Vinhos", "postal_code": "2630" },
            { "name": "Azambuja", "postal_code": "2050" },
            { "name": "Cadaval", "postal_code": "2550" },
            { "name": "Cascais", "postal_code": "2750" },
            { "name": "Lisboa", "postal_code": "1000" },
            { "name": "Loures", "postal_code": "2670" },
            { "name": "Lourinhã", "postal_code": "2530" },
            { "name": "Mafra", "postal_code": "2640" },
            { "name": "Odivelas", "postal_code": "2675" },
            { "name": "Oeiras", "postal_code": "2780" },
            { "name": "Sintra", "postal_code": "2710" },
            { "name": "Sobral de Monte Agraço", "postal_code": "2590" },
            { "name": "Torres Vedras", "postal_code": "2560" },
            { "name": "Vila Franca de Xira", "postal_code": "2600" }
        ],
        "Portalegre": [
            { "name": "Alter do Chão", "postal_code": "7440" },
            { "name": "Arronches", "postal_code": "7340" },
            { "name": "Avis", "postal_code": "7480" },
            { "name": "Campo Maior", "postal_code": "7370" },
            { "name": "Castelo de Vide", "postal_code": "7320" },
            { "name": "Crato", "postal_code": "7430" },
            { "name": "Elvas", "postal_code": "7350" },
            { "name": "Fronteira", "postal_code": "7460" },
            { "name": "Gavião", "postal_code": "6040" },
            { "name": "Marvão", "postal_code": "7330" },
            { "name": "Monforte", "postal_code": "7450" },
            { "name": "Nisa", "postal_code": "6050" },
            { "name": "Ponte de Sor", "postal_code": "7400" },
            { "name": "Portalegre", "postal_code": "7300" },
            { "name": "Sousel", "postal_code": "7470" }
        ],
        "Porto": [
            { "name": "Amarante", "postal_code": "4600" },
            { "name": "Baião", "postal_code": "4640" },
            { "name": "Felgueiras", "postal_code": "4610" },
            { "name": "Gondomar", "postal_code": "4420" },
            { "name": "Lousada", "postal_code": "4620" },
            { "name": "Maia", "postal_code": "4470" },
            { "name": "Marco de Canaveses", "postal_code": "4630" },
            { "name": "Matosinhos", "postal_code": "4450" },
            { "name": "Paços de Ferreira", "postal_code": "4590" },
            { "name": "Paredes", "postal_code": "4580" },
            { "name": "Penafiel", "postal_code": "4560" },
            { "name": "Porto", "postal_code": "4000" },
            { "name": "Póvoa de Varzim", "postal_code": "4490" },
            { "name": "Santo Tirso", "postal_code": "4780" },
            { "name": "Trofa", "postal_code": "4785" },
            { "name": "Valongo", "postal_code": "4440" },
            { "name": "Vila do Conde", "postal_code": "4480" },
            { "name": "Vila Nova de Gaia", "postal_code": "4400" }
        ],
        "Santarém": [
            { "name": "Abrantes", "postal_code": "2200" },
            { "name": "Alcanena", "postal_code": "2380" },
            { "name": "Almeirim", "postal_code": "2080" },
            { "name": "Alpiarça", "postal_code": "2090" },
            { "name": "Benavente", "postal_code": "2130" },
            { "name": "Cartaxo", "postal_code": "2050" },
            { "name": "Chamusca", "postal_code": "2330" },
            { "name": "Constância", "postal_code": "2330" },
            { "name": "Coruche", "postal_code": "2100" },
            { "name": "Entroncamento", "postal_code": "2330" },
            { "name": "Ferreira do Zêzere", "postal_code": "2200" },
            { "name": "Golegã", "postal_code": "2150" },
            { "name": "Mação", "postal_code": "6120" },
            { "name": "Ourém", "postal_code": "2490" },
            { "name": "Rio Maior", "postal_code": "2040" },
            { "name": "Salvaterra de Magos", "postal_code": "2120" },
            { "name": "Santarém", "postal_code": "2000" },
            { "name": "Sardoal", "postal_code": "2230" },
            { "name": "Tomar", "postal_code": "2300" },
            { "name": "Torres Novas", "postal_code": "2350" },
            { "name": "Vila Nova da Barquinha", "postal_code": "2260" }
        ],
        "Setúbal": [
            { "name": "Alcácer do Sal", "postal_code": "7580" },
            { "name": "Alcochete", "postal_code": "2890" },
            { "name": "Almada", "postal_code": "2800" },
            { "name": "Barreiro", "postal_code": "2830" },
            { "name": "Grândola", "postal_code": "7570" },
            { "name": "Moita", "postal_code": "2870" },
            { "name": "Montijo", "postal_code": "2870" },
            { "name": "Palmela", "postal_code": "2950" },
            { "name": "Santiago do Cacém", "postal_code": "7540" },
            { "name": "Seixal", "postal_code": "2840" },
            { "name": "Sesimbra", "postal_code": "2970" },
            { "name": "Setúbal", "postal_code": "2900" },
            { "name": "Sines", "postal_code": "7520" }
        ],
        "Viana do Castelo": [
            { "name": "Arcos de Valdevez", "postal_code": "4970" },
            { "name": "Caminha", "postal_code": "4910" },
            { "name": "Melgaço", "postal_code": "4960" },
            { "name": "Monção", "postal_code": "4950" },
            { "name": "Paredes de Coura", "postal_code": "4940" },
            { "name": "Ponte da Barca", "postal_code": "4980" },
            { "name": "Ponte de Lima", "postal_code": "4990" },
            { "name": "Valença", "postal_code": "4930" },
            { "name": "Viana do Castelo", "postal_code": "4900" },
            { "name": "Vila Nova de Cerveira", "postal_code": "4920" }
        ],
        "Vila Real": [
            { "name": "Alijó", "postal_code": "5070" },
            { "name": "Boticas", "postal_code": "5420" },
            { "name": "Chaves", "postal_code": "5400" },
            { "name": "Mesão Frio", "postal_code": "5040" },
            { "name": "Mondim de Basto", "postal_code": "4880" },
            { "name": "Montalegre", "postal_code": "5470" },
            { "name": "Murça", "postal_code": "5150" },
            { "name": "Peso da Régua", "postal_code": "5050" },
            { "name": "Ribeira de Pena", "postal_code": "4870" },
            { "name": "Sabrosa", "postal_code": "5080" },
            { "name": "Santa Marta de Penaguião", "postal_code": "5070" },
            { "name": "Valpaços", "postal_code": "5430" },
            { "name": "Vila Pouca de Aguiar", "postal_code": "5440" },
            { "name": "Vila Real", "postal_code": "5000" }
        ],
        "Viseu": [
            { "name": "Armamar", "postal_code": "5110" },
            { "name": "Carregal do Sal", "postal_code": "3430" },
            { "name": "Castro Daire", "postal_code": "3600" },
            { "name": "Cinfães", "postal_code": "4660" },
            { "name": "Lamego", "postal_code": "5100" },
            { "name": "Mangualde", "postal_code": "3530" },
            { "name": "Moimenta da Beira", "postal_code": "3610" },
            { "name": "Mortágua", "postal_code": "3130" },
            { "name": "Nelas", "postal_code": "3520" },
            { "name": "Oliveira de Frades", "postal_code": "3680" },
            { "name": "Penalva do Castelo", "postal_code": "3550" },
            { "name": "Penedono", "postal_code": "3620" },
            { "name": "Resende", "postal_code": "4660" },
            { "name": "Santa Comba Dão", "postal_code": "3420" },
            { "name": "São João da Pesqueira", "postal_code": "5130" },
            { "name": "São Pedro do Sul", "postal_code": "3660" },
            { "name": "Sátão", "postal_code": "3610" },
            { "name": "Sernancelhe", "postal_code": "3610" },
            { "name": "Tabuaço", "postal_code": "5120" },
            { "name": "Tarouca", "postal_code": "3610" },
            { "name": "Tondela", "postal_code": "3460" },
            { "name": "Vila Nova de Paiva", "postal_code": "3650" },
            { "name": "Viseu", "postal_code": "3500" },
            { "name": "Vouzela", "postal_code": "3670" }
        ],
        "Região Autónoma dos Açores": [
            { "name": "Angra do Heroísmo", "postal_code": "9700" },
            { "name": "Calheta", "postal_code": "9850" },
            { "name": "Corvo", "postal_code": "9980" },
            { "name": "Horta", "postal_code": "9900" },
            { "name": "Lagoa", "postal_code": "9560" },
            { "name": "Lajes das Flores", "postal_code": "9970" },
            { "name": "Lajes do Pico", "postal_code": "9930" },
            { "name": "Madalena", "postal_code": "9950" },
            { "name": "Nordeste", "postal_code": "9630" },
            { "name": "Ponta Delgada", "postal_code": "9500" },
            { "name": "Povoação", "postal_code": "9680" },
            { "name": "Praia da Vitória", "postal_code": "9760" },
            { "name": "Ribeira Grande", "postal_code": "9600" },
            { "name": "Santa Cruz da Graciosa", "postal_code": "9880" },
            { "name": "Santa Cruz das Flores", "postal_code": "9970" },
            { "name": "São Roque do Pico", "postal_code": "9940" },
            { "name": "Velas", "postal_code": "9800" },
            { "name": "Vila do Porto", "postal_code": "9780" },
            { "name": "Vila Franca do Campo", "postal_code": "9680" }
        ],
        "Região Autónoma da Madeira": [
            { "name": "Calheta", "postal_code": "9370" },
            { "name": "Câmara de Lobos", "postal_code": "9300" },
            { "name": "Funchal", "postal_code": "9000" },
            { "name": "Machico", "postal_code": "9200" },
            { "name": "Ponta do Sol", "postal_code": "9360" },
            { "name": "Porto Moniz", "postal_code": "9270" },
            { "name": "Porto Santo", "postal_code": "9400" },
            { "name": "Ribeira Brava", "postal_code": "9350" },
            { "name": "Santa Cruz", "postal_code": "9100" },
            { "name": "Santana", "postal_code": "9230" },
            { "name": "São Vicente", "postal_code": "9240" }
        ]
    }
}
